SORCE                   
1 27651U 03004A   26068.43340162  .00003920  00000+0  29573-3 0  9995
2 27651  39.9899 110.5611 0015930  53.0009 307.2241 15.03094555256885
STARLINK-34631          
1 64855U 25152P   26068.60121625  .00003102  00000+0  21908-3 0  9996
2 64855  97.6024 285.4132 0002118  84.8452 275.3017 15.05649076 35406
